CTC2_L_00526001-01
1 10000U 22879LI  26075.70048611  .00000000  00000+0  00000-0 0  9995
2 10000  97.5000   0.0000 0000000   0.0000   0.0000 14.57888518    10
CTC2_L_00526001-02
1 10001U 23418ZR  26075.70048611  .00000000  00000+0  00000-0 0  9996
2 10001  97.5000   0.0000 0000000   0.0000  90.0000 14.57888518    10
CTC2_L_00526001-03
1 10002U 23251LO  26075.70048611  .00000000  00000+0  00000-0 0  9992
2 10002  97.5000   0.0000 0000000   0.0000 180.0000 14.57888518    11
CTC2_L_00526001-04
1 10003U 23269CJ  26075.70048611  .00000000  00000+0  00000-0 0  9992
2 10003  97.5000   0.0000 0000000   0.0000 270.0000 14.57888518    12
CTC2_L_00526002-01
1 10004U 23342CW  26075.70048611  .00000000  00000+0  00000-0 0  9995
2 10004  97.5000  12.0000 0000000   0.0000  12.0000 14.57888518    10
CTC2_L_00526002-02
1 10005U 25962RF  26075.70048611  .00000000  00000+0  00000-0 0  9996
2 10005  97.5000  12.0000 0000000   0.0000 102.0000 14.57888518    11
CTC2_L_00526002-03
1 10006U 24400FM  26075.70048611  .00000000  00000+0  00000-0 0  9993
2 10006  97.5000  12.0000 0000000   0.0000 192.0000 14.57888518    11
CTC2_L_00526002-04
1 10007U 26023VA  26075.70048611  .00000000  00000+0  00000-0 0  9997
2 10007  97.5000  12.0000 0000000   0.0000 282.0000 14.57888518    12
CTC2_L_00526003-01
1 10008U 26054NN  26075.70048611  .00000000  00000+0  00000-0 0  9992
2 10008  97.5000  24.0000 0000000   0.0000  24.0000 14.57888518    10
CTC2_L_00526003-02
1 10009U 23689I   26075.70048611  .00000000  00000+0  00000-0 0  9994
2 10009  97.5000  24.0000 0000000   0.0000 114.0000 14.57888518    11
CTC2_L_00526003-03
1 10010U 22071JZ  26075.70048611  .00000000  00000+0  00000-0 0  9990
2 10010  97.5000  24.0000 0000000   0.0000 204.0000 14.57888518    13
CTC2_L_00526003-04
1 10011U 23241RX  26075.70048611  .00000000  00000+0  00000-0 0  9991
2 10011  97.5000  24.0000 0000000   0.0000 294.0000 14.57888518    13
CTC2_L_00526004-01
1 10012U 26759PP  26075.70048611  .00000000  00000+0  00000-0 0  9999
2 10012  97.5000  36.0000 0000000   0.0000  36.0000 14.57888518    11
CTC2_L_00526004-02
1 10013U 25733JU  26075.70048611  .00000000  00000+0  00000-0 0  9991
2 10013  97.5000  36.0000 0000000   0.0000 126.0000 14.57888518    12
CTC2_L_00526004-03
1 10014U 26962UR  26075.70048611  .00000000  00000+0  00000-0 0  9997
2 10014  97.5000  36.0000 0000000   0.0000 216.0000 14.57888518    13
CTC2_L_00526004-04
1 10015U 25911HH  26075.70048611  .00000000  00000+0  00000-0 0  9991
2 10015  97.5000  36.0000 0000000   0.0000 306.0000 14.57888518    14
CTC2_L_00526005-01
1 10016U 23524AC  26075.70048611  .00000000  00000+0  00000-0 0  9990
2 10016  97.5000  48.0000 0000000   0.0000  48.0000 14.57888518    11
CTC2_L_00526005-02
1 10017U 25315DA  26075.70048611  .00000000  00000+0  00000-0 0  9991
2 10017  97.5000  48.0000 0000000   0.0000 138.0000 14.57888518    12
CTC2_L_00526005-03
1 10018U 24118UI  26075.70048611  .00000000  00000+0  00000-0 0  9992
2 10018  97.5000  48.0000 0000000   0.0000 228.0000 14.57888518    13
CTC2_L_00526005-04
1 10019U 22138WK  26075.70048611  .00000000  00000+0  00000-0 0  9993
2 10019  97.5000  48.0000 0000000   0.0000 318.0000 14.57888518    14
CTC2_L_00526006-01
1 10020U 25614UT  26075.70048611  .00000000  00000+0  00000-0 0  9997
2 10020  97.5000  60.0000 0000000   0.0000  60.0000 14.57888518    14
CTC2_L_00526006-02
1 10021U 26903FN  26075.70048611  .00000000  00000+0  00000-0 0  9990
2 10021  97.5000  60.0000 0000000   0.0000 150.0000 14.57888518    15
CTC2_L_00526006-03
1 10022U 22572EX  26075.70048611  .00000000  00000+0  00000-0 0  9999
2 10022  97.5000  60.0000 0000000   0.0000 240.0000 14.57888518    16
CTC2_L_00526006-04
1 10023U 26236WC  26075.70048611  .00000000  00000+0  00000-0 0  9991
2 10023  97.5000  60.0000 0000000   0.0000 330.0000 14.57888518    17
CTC2_L_00526007-01
1 10024U 26246KR  26075.70048611  .00000000  00000+0  00000-0 0  9993
2 10024  97.5000  72.0000 0000000   0.0000  72.0000 14.57888518    14
CTC2_L_00526007-02
1 10025U 26586ZL  26075.70048611  .00000000  00000+0  00000-0 0  9991
2 10025  97.5000  72.0000 0000000   0.0000 162.0000 14.57888518    15
CTC2_L_00526007-03
1 10026U 25177WO  26075.70048611  .00000000  00000+0  00000-0 0  9997
2 10026  97.5000  72.0000 0000000   0.0000 252.0000 14.57888518    16
CTC2_L_00526007-04
1 10027U 26126BT  26075.70048611  .00000000  00000+0  00000-0 0  9993
2 10027  97.5000  72.0000 0000000   0.0000 342.0000 14.57888518    17
CTC2_L_00526008-01
1 10028U 25766UK  26075.70048611  .00000000  00000+0  00000-0 0  9993
2 10028  97.5000  84.0000 0000000   0.0000  84.0000 14.57888518    14
CTC2_L_00526008-02
1 10029U 22643AX  26075.70048611  .00000000  00000+0  00000-0 0  9995
2 10029  97.5000  84.0000 0000000   0.0000 174.0000 14.57888518    15
CTC2_L_00526008-03
1 10030U 25725WF  26075.70048611  .00000000  00000+0  00000-0 0  9991
2 10030  97.5000  84.0000 0000000   0.0000 264.0000 14.57888518    17
CTC2_L_00526008-04
1 10031U 26192MD  26075.70048611  .00000000  00000+0  00000-0 0  9991
2 10031  97.5000  84.0000 0000000   0.0000 354.0000 14.57888518    18
CTC2_L_00526009-01
1 10032U 25269SG  26075.70048611  .00000000  00000+0  00000-0 0  9996
2 10032  97.5000  96.0000 0000000   0.0000  96.0000 14.57888518    15
CTC2_L_00526009-02
1 10033U 26437WW  26075.70048611  .00000000  00000+0  00000-0 0  9995
2 10033  97.5000  96.0000 0000000   0.0000 186.0000 14.57888518    16
CTC2_L_00526009-03
1 10034U 24733UJ  26075.70048611  .00000000  00000+0  00000-0 0  9993
2 10034  97.5000  96.0000 0000000   0.0000 276.0000 14.57888518    17
CTC2_L_00526009-04
1 10035U 24483AR  26075.70048611  .00000000  00000+0  00000-0 0  9996
2 10035  97.5000  96.0000 0000000   0.0000   6.0000 14.57888518    19
CTC2_L_00526010-01
1 10036U 23608QV  26075.70048611  .00000000  00000+0  00000-0 0  9995
2 10036  97.5000 108.0000 0000000   0.0000 108.0000 14.57888518    17
CTC2_L_00526010-02
1 10037U 22934GJ  26075.70048611  .00000000  00000+0  00000-0 0  9997
2 10037  97.5000 108.0000 0000000   0.0000 198.0000 14.57888518    17
CTC2_L_00526010-03
1 10038U 24207KV  26075.70048611  .00000000  00000+0  00000-0 0  9993
2 10038  97.5000 108.0000 0000000   0.0000 288.0000 14.57888518    18
CTC2_L_00526010-04
1 10039U 24806AM  26075.70048611  .00000000  00000+0  00000-0 0  9999
2 10039  97.5000 108.0000 0000000   0.0000  18.0000 14.57888518    10
CTC2_L_00526011-01
1 10040U 22732YB  26075.70048611  .00000000  00000+0  00000-0 0  9997
2 10040  97.5000 120.0000 0000000   0.0000 120.0000 14.57888518    10
CTC2_L_00526011-02
1 10041U 22322WP  26075.70048611  .00000000  00000+0  00000-0 0  9993
2 10041  97.5000 120.0000 0000000   0.0000 210.0000 14.57888518    11
CTC2_L_00526011-03
1 10042U 24578XP  26075.70048611  .00000000  00000+0  00000-0 0  9999
2 10042  97.5000 120.0000 0000000   0.0000 300.0000 14.57888518    12
CTC2_L_00526011-04
1 10043U 24731TS  26075.70048611  .00000000  00000+0  00000-0 0  9991
2 10043  97.5000 120.0000 0000000   0.0000  30.0000 14.57888518    13
CTC2_L_00526012-01
1 10044U 22209VE  26075.70048611  .00000000  00000+0  00000-0 0  9990
2 10044  97.5000 132.0000 0000000   0.0000 132.0000 14.57888518    10
CTC2_L_00526012-02
1 10045U 22668UF  26075.70048611  .00000000  00000+0  00000-0 0  9990
2 10045  97.5000 132.0000 0000000   0.0000 222.0000 14.57888518    11
CTC2_L_00526012-03
1 10046U 26404ZQ  26075.70048611  .00000000  00000+0  00000-0 0  9993
2 10046  97.5000 132.0000 0000000   0.0000 312.0000 14.57888518    12
CTC2_L_00526012-04
1 10047U 22345NH  26075.70048611  .00000000  00000+0  00000-0 0  9994
2 10047  97.5000 132.0000 0000000   0.0000  42.0000 14.57888518    13
CTC2_L_00526013-01
1 10048U 25470EW  26075.70048611  .00000000  00000+0  00000-0 0  9997
2 10048  97.5000 144.0000 0000000   0.0000 144.0000 14.57888518    10
CTC2_L_00526013-02
1 10049U 22784WZ  26075.70048611  .00000000  00000+0  00000-0 0  9993
2 10049  97.5000 144.0000 0000000   0.0000 234.0000 14.57888518    11
CTC2_L_00526013-03
1 10050U 22517II  26075.70048611  .00000000  00000+0  00000-0 0  9999
2 10050  97.5000 144.0000 0000000   0.0000 324.0000 14.57888518    13
CTC2_L_00526013-04
1 10051U 23464JW  26075.70048611  .00000000  00000+0  00000-0 0  9992
2 10051  97.5000 144.0000 0000000   0.0000  54.0000 14.57888518    14
CTC2_L_00526014-01
1 10052U 25462JI  26075.70048611  .00000000  00000+0  00000-0 0  9993
2 10052  97.5000 156.0000 0000000   0.0000 156.0000 14.57888518    11
CTC2_L_00526014-02
1 10053U 26345DQ  26075.70048611  .00000000  00000+0  00000-0 0  9995
2 10053  97.5000 156.0000 0000000   0.0000 246.0000 14.57888518    12
CTC2_L_00526014-03
1 10054U 22516LA  26075.70048611  .00000000  00000+0  00000-0 0  9992
2 10054  97.5000 156.0000 0000000   0.0000 336.0000 14.57888518    13
CTC2_L_00526014-04
1 10055U 23527EG  26075.70048611  .00000000  00000+0  00000-0 0  9996
2 10055  97.5000 156.0000 0000000   0.0000  66.0000 14.57888518    14
CTC2_L_00526015-01
1 10056U 23255AT  26075.70048611  .00000000  00000+0  00000-0 0  9995
2 10056  97.5000 168.0000 0000000   0.0000 168.0000 14.57888518    11
CTC2_L_00526015-02
1 10057U 23818CU  26075.70048611  .00000000  00000+0  00000-0 0  9991
2 10057  97.5000 168.0000 0000000   0.0000 258.0000 14.57888518    12
CTC2_L_00526015-03
1 10058U 22722HX  26075.70048611  .00000000  00000+0  00000-0 0  9995
2 10058  97.5000 168.0000 0000000   0.0000 348.0000 14.57888518    13
CTC2_L_00526015-04
1 10059U 24107MY  26075.70048611  .00000000  00000+0  00000-0 0  9995
2 10059  97.5000 168.0000 0000000   0.0000  78.0000 14.57888518    14
CTC2_L_00526016-01
1 10060U 23414VB  26075.70048611  .00000000  00000+0  00000-0 0  9997
2 10060  97.5000 180.0000 0000000   0.0000 180.0000 14.57888518    14
CTC2_L_00526016-02
1 10061U 26142WW  26075.70048611  .00000000  00000+0  00000-0 0  9999
2 10061  97.5000 180.0000 0000000   0.0000 270.0000 14.57888518    15
